[{"OBJECT_NAME":"ONEWEB-0220","OBJECT_ID":"2021-031Y","EPOCH":"2026-03-09T16:28:50.713248","MEAN_MOTION":13.14501918,"ECCENTRICITY":0.00017802,"INCLINATION":87.8989,"RA_OF_ASC_NODE":309.5473,"ARG_OF_PERICENTER":74.3191,"MEAN_ANOMALY":285.8135,"EPHEMERIS_TYPE":0,"CLASSIFICATION_TYPE":"U","NORAD_CAT_ID":48232,"ELEMENT_SET_NO":999,"REV_AT_EPOCH":23533,"BSTAR":-0.00062626158,"MEAN_MOTION_DOT":-2.19e-6,"MEAN_MOTION_DDOT":0},{"OBJECT_NAME":"SL-14 R\/B","OBJECT_ID":"1988-064B","EPOCH":"2026-03-09T22:26:58.344864","MEAN_MOTION":13.17272582,"ECCENTRICITY":0.00165949,"INCLINATION":82.5463,"RA_OF_ASC_NODE":44.0722,"ARG_OF_PERICENTER":124.4622,"MEAN_ANOMALY":289.5659,"EPHEMERIS_TYPE":0,"CLASSIFICATION_TYPE":"U","NORAD_CAT_ID":19337,"ELEMENT_SET_NO":999,"REV_AT_EPOCH":80867,"BSTAR":0.00033527684,"MEAN_MOTION_DOT":1.42e-6,"MEAN_MOTION_DDOT":0}]
